[{"OBJECT_NAME":"ASTROCAST-0402","OBJECT_ID":"2023-001DE","EPOCH":"2026-03-09T19:21:31.190400","MEAN_MOTION":15.26734153,"ECCENTRICITY":0.00042092,"INCLINATION":97.5556,"RA_OF_ASC_NODE":160.6821,"ARG_OF_PERICENTER":216.6984,"MEAN_ANOMALY":143.3966,"EPHEMERIS_TYPE":0,"CLASSIFICATION_TYPE":"U","NORAD_CAT_ID":55109,"ELEMENT_SET_NO":999,"REV_AT_EPOCH":12936,"BSTAR":0.00041835119,"MEAN_MOTION_DOT":0.0001093,"MEAN_MOTION_DDOT":0},{"OBJECT_NAME":"STARLINK-31000","OBJECT_ID":"2023-186R","EPOCH":"2026-03-09T09:53:14.289216","MEAN_MOTION":15.27580413,"ECCENTRICITY":8.639e-5,"INCLINATION":43.0013,"RA_OF_ASC_NODE":65.2185,"ARG_OF_PERICENTER":279.8571,"MEAN_ANOMALY":80.2183,"EPHEMERIS_TYPE":0,"CLASSIFICATION_TYPE":"U","NORAD_CAT_ID":58488,"ELEMENT_SET_NO":999,"REV_AT_EPOCH":12584,"BSTAR":2.9611403e-5,"MEAN_MOTION_DOT":5.53e-6,"MEAN_MOTION_DDOT":0}]
